<?xml version="1.0" encoding="UTF-8"?>
<ndm xmlns:xsi="http://www.w3.org/2001/XMLSchema-instance" xsi:noNamespaceSchemaLocation="https://sanaregistry.org/r/ndmxml_unqualified/ndmxml-2.0.0-master-2.0.xsd">
<omm id="CCSDS_OMM_VERS" version="2.0">
<header><CREATION_DATE/><ORIGINATOR/></header><body><segment><metadata><OBJECT_NAME>GPS BIIRM-3 (PRN 12)</OBJECT_NAME><OBJECT_ID>2006-052A</OBJECT_ID><CENTER_NAME>EARTH</CENTER_NAME><REF_FRAME>TEME</REF_FRAME><TIME_SYSTEM>UTC</TIME_SYSTEM><MEAN_ELEMENT_THEORY>SGP4</MEAN_ELEMENT_THEORY></metadata><data><meanElements><EPOCH>2025-01-13T21:30:13.098816</EPOCH><MEAN_MOTION>2.00553105</MEAN_MOTION><ECCENTRICITY>.0087761</ECCENTRICITY><INCLINATION>55.0619</INCLINATION><RA_OF_ASC_NODE>234.6047</RA_OF_ASC_NODE><ARG_OF_PERICENTER>84.0011</ARG_OF_PERICENTER><MEAN_ANOMALY>277.0728</MEAN_ANOMALY></meanElements><tleParameters><EPHEMERIS_TYPE>0</EPHEMERIS_TYPE><CLASSIFICATION_TYPE>U</CLASSIFICATION_TYPE><NORAD_CAT_ID>29601</NORAD_CAT_ID><ELEMENT_SET_NO>999</ELEMENT_SET_NO><REV_AT_EPOCH>13299</REV_AT_EPOCH><BSTAR>0</BSTAR><MEAN_MOTION_DOT>.56E-6</MEAN_MOTION_DOT><MEAN_MOTION_DDOT>0</MEAN_MOTION_DDOT></tleParameters></data></segment></body></omm>
<omm id="CCSDS_OMM_VERS" version="2.0">
<header><CREATION_DATE/><ORIGINATOR/></header><body><segment><metadata><OBJECT_NAME>GPS BIIRM-4 (PRN 15)</OBJECT_NAME><OBJECT_ID>2007-047A</OBJECT_ID><CENTER_NAME>EARTH</CENTER_NAME><REF_FRAME>TEME</REF_FRAME><TIME_SYSTEM>UTC</TIME_SYSTEM><MEAN_ELEMENT_THEORY>SGP4</MEAN_ELEMENT_THEORY></metadata><data><meanElements><EPOCH>2025-01-14T04:54:40.933152</EPOCH><MEAN_MOTION>2.00554537</MEAN_MOTION><ECCENTRICITY>.0159072</ECCENTRICITY><INCLINATION>53.7283</INCLINATION><RA_OF_ASC_NODE>101.5090</RA_OF_ASC_NODE><ARG_OF_PERICENTER>79.4703</ARG_OF_PERICENTER><MEAN_ANOMALY>282.3398</MEAN_ANOMALY></meanElements><tleParameters><EPHEMERIS_TYPE>0</EPHEMERIS_TYPE><CLASSIFICATION_TYPE>U</CLASSIFICATION_TYPE><NORAD_CAT_ID>32260</NORAD_CAT_ID><ELEMENT_SET_NO>999</ELEMENT_SET_NO><REV_AT_EPOCH>12640</REV_AT_EPOCH><BSTAR>0</BSTAR><MEAN_MOTION_DOT>-.36E-6</MEAN_MOTION_DOT><MEAN_MOTION_DDOT>0</MEAN_MOTION_DDOT></tleParameters></data></segment></body></omm>
<omm id="CCSDS_OMM_VERS" version="2.0">
<header><CREATION_DATE/><ORIGINATOR/></header><body><segment><metadata><OBJECT_NAME>GPS BIIRM-5 (PRN 29)</OBJECT_NAME><OBJECT_ID>2007-062A</OBJECT_ID><CENTER_NAME>EARTH</CENTER_NAME><REF_FRAME>TEME</REF_FRAME><TIME_SYSTEM>UTC</TIME_SYSTEM><MEAN_ELEMENT_THEORY>SGP4</MEAN_ELEMENT_THEORY></metadata><data><meanElements><EPOCH>2025-01-14T06:25:18.810048</EPOCH><MEAN_MOTION>2.00558485</MEAN_MOTION><ECCENTRICITY>.0028027</ECCENTRICITY><INCLINATION>55.4598</INCLINATION><RA_OF_ASC_NODE>294.9551</RA_OF_ASC_NODE><ARG_OF_PERICENTER>154.9829</ARG_OF_PERICENTER><MEAN_ANOMALY>18.6694</MEAN_ANOMALY></meanElements><tleParameters><EPHEMERIS_TYPE>0</EPHEMERIS_TYPE><CLASSIFICATION_TYPE>U</CLASSIFICATION_TYPE><NORAD_CAT_ID>32384</NORAD_CAT_ID><ELEMENT_SET_NO>999</ELEMENT_SET_NO><REV_AT_EPOCH>12510</REV_AT_EPOCH><BSTAR>0</BSTAR><MEAN_MOTION_DOT>-.49E-6</MEAN_MOTION_DOT><MEAN_MOTION_DDOT>0</MEAN_MOTION_DDOT></tleParameters></data></segment></body></omm>
<omm id="CCSDS_OMM_VERS" version="2.0">
<header><CREATION_DATE/><ORIGINATOR/></header><body><segment><metadata><OBJECT_NAME>GPS BIIRM-6 (PRN 07)</OBJECT_NAME><OBJECT_ID>2008-012A</OBJECT_ID><CENTER_NAME>EARTH</CENTER_NAME><REF_FRAME>TEME</REF_FRAME><TIME_SYSTEM>UTC</TIME_SYSTEM><MEAN_ELEMENT_THEORY>SGP4</MEAN_ELEMENT_THEORY></metadata><data><meanElements><EPOCH>2025-01-14T02:46:25.295520</EPOCH><MEAN_MOTION>2.00553362</MEAN_MOTION><ECCENTRICITY>.0191751</ECCENTRICITY><INCLINATION>54.4574</INCLINATION><RA_OF_ASC_NODE>170.6410</RA_OF_ASC_NODE><ARG_OF_PERICENTER>240.9507</ARG_OF_PERICENTER><MEAN_ANOMALY>117.0761</MEAN_ANOMALY></meanElements><tleParameters><EPHEMERIS_TYPE>0</EPHEMERIS_TYPE><CLASSIFICATION_TYPE>U</CLASSIFICATION_TYPE><NORAD_CAT_ID>32711</NORAD_CAT_ID><ELEMENT_SET_NO>999</ELEMENT_SET_NO><REV_AT_EPOCH>12334</REV_AT_EPOCH><BSTAR>0</BSTAR><MEAN_MOTION_DOT>.19E-6</MEAN_MOTION_DOT><MEAN_MOTION_DDOT>0</MEAN_MOTION_DDOT></tleParameters></data></segment></body></omm>
<omm id="CCSDS_OMM_VERS" version="2.0">
<header><CREATION_DATE/><ORIGINATOR/></header><body><segment><metadata><OBJECT_NAME>GPS BIIRM-8 (PRN 05)</OBJECT_NAME><OBJECT_ID>2009-043A</OBJECT_ID><CENTER_NAME>EARTH</CENTER_NAME><REF_FRAME>TEME</REF_FRAME><TIME_SYSTEM>UTC</TIME_SYSTEM><MEAN_ELEMENT_THEORY>SGP4</MEAN_ELEMENT_THEORY></metadata><data><meanElements><EPOCH>2025-01-14T03:47:23.208000</EPOCH><MEAN_MOTION>2.00557029</MEAN_MOTION><ECCENTRICITY>.0053504</ECCENTRICITY><INCLINATION>55.8452</INCLINATION><RA_OF_ASC_NODE>47.9116</RA_OF_ASC_NODE><ARG_OF_PERICENTER>75.3478</ARG_OF_PERICENTER><MEAN_ANOMALY>326.6125</MEAN_ANOMALY></meanElements><tleParameters><EPHEMERIS_TYPE>0</EPHEMERIS_TYPE><CLASSIFICATION_TYPE>U</CLASSIFICATION_TYPE><NORAD_CAT_ID>35752</NORAD_CAT_ID><ELEMENT_SET_NO>999</ELEMENT_SET_NO><REV_AT_EPOCH>11295</REV_AT_EPOCH><BSTAR>0</BSTAR><MEAN_MOTION_DOT>-.59E-6</MEAN_MOTION_DOT><MEAN_MOTION_DDOT>0</MEAN_MOTION_DDOT></tleParameters></data></segment></body></omm>
<omm id="CCSDS_OMM_VERS" version="2.0">
<header><CREATION_DATE/><ORIGINATOR/></header><body><segment><metadata><OBJECT_NAME>GPS BIIF-1  (PRN 25)</OBJECT_NAME><OBJECT_ID>2010-022A</OBJECT_ID><CENTER_NAME>EARTH</CENTER_NAME><REF_FRAME>TEME</REF_FRAME><TIME_SYSTEM>UTC</TIME_SYSTEM><MEAN_ELEMENT_THEORY>SGP4</MEAN_ELEMENT_THEORY></metadata><data><meanElements><EPOCH>2025-01-14T03:51:45.621216</EPOCH><MEAN_MOTION>2.00562189</MEAN_MOTION><ECCENTRICITY>.0121198</ECCENTRICITY><INCLINATION>54.3791</INCLINATION><RA_OF_ASC_NODE>229.4839</RA_OF_ASC_NODE><ARG_OF_PERICENTER>63.1156</ARG_OF_PERICENTER><MEAN_ANOMALY>98.9011</MEAN_ANOMALY></meanElements><tleParameters><EPHEMERIS_TYPE>0</EPHEMERIS_TYPE><CLASSIFICATION_TYPE>U</CLASSIFICATION_TYPE><NORAD_CAT_ID>36585</NORAD_CAT_ID><ELEMENT_SET_NO>999</ELEMENT_SET_NO><REV_AT_EPOCH>10718</REV_AT_EPOCH><BSTAR>0</BSTAR><MEAN_MOTION_DOT>.54E-6</MEAN_MOTION_DOT><MEAN_MOTION_DDOT>0</MEAN_MOTION_DDOT></tleParameters></data></segment></body></omm>
<omm id="CCSDS_OMM_VERS" version="2.0">
<header><CREATION_DATE/><ORIGINATOR/></header><body><segment><metadata><OBJECT_NAME>GPS BIIF-3  (PRN 24)</OBJECT_NAME><OBJECT_ID>2012-053A</OBJECT_ID><CENTER_NAME>EARTH</CENTER_NAME><REF_FRAME>TEME</REF_FRAME><TIME_SYSTEM>UTC</TIME_SYSTEM><MEAN_ELEMENT_THEORY>SGP4</MEAN_ELEMENT_THEORY></metadata><data><meanElements><EPOCH>2025-01-12T19:18:22.612032</EPOCH><MEAN_MOTION>2.00561149</MEAN_MOTION><ECCENTRICITY>.0162597</ECCENTRICITY><INCLINATION>53.5274</INCLINATION><RA_OF_ASC_NODE>164.9012</RA_OF_ASC_NODE><ARG_OF_PERICENTER>59.4560</ARG_OF_PERICENTER><MEAN_ANOMALY>302.0936</MEAN_ANOMALY></meanElements><tleParameters><EPHEMERIS_TYPE>0</EPHEMERIS_TYPE><CLASSIFICATION_TYPE>U</CLASSIFICATION_TYPE><NORAD_CAT_ID>38833</NORAD_CAT_ID><ELEMENT_SET_NO>999</ELEMENT_SET_NO><REV_AT_EPOCH>8900</REV_AT_EPOCH><BSTAR>0</BSTAR><MEAN_MOTION_DOT>.16E-6</MEAN_MOTION_DOT><MEAN_MOTION_DDOT>0</MEAN_MOTION_DDOT></tleParameters></data></segment></body></omm>
<omm id="CCSDS_OMM_VERS" version="2.0">
<header><CREATION_DATE/><ORIGINATOR/></header><body><segment><metadata><OBJECT_NAME>GPS BIIF-4  (PRN 27)</OBJECT_NAME><OBJECT_ID>2013-023A</OBJECT_ID><CENTER_NAME>EARTH</CENTER_NAME><REF_FRAME>TEME</REF_FRAME><TIME_SYSTEM>UTC</TIME_SYSTEM><MEAN_ELEMENT_THEORY>SGP4</MEAN_ELEMENT_THEORY></metadata><data><meanElements><EPOCH>2025-01-14T03:53:57.700896</EPOCH><MEAN_MOTION>2.00562121</MEAN_MOTION><ECCENTRICITY>.0130417</ECCENTRICITY><INCLINATION>54.9296</INCLINATION><RA_OF_ASC_NODE>290.0617</RA_OF_ASC_NODE><ARG_OF_PERICENTER>45.7378</ARG_OF_PERICENTER><MEAN_ANOMALY>315.3706</MEAN_ANOMALY></meanElements><tleParameters><EPHEMERIS_TYPE>0</EPHEMERIS_TYPE><CLASSIFICATION_TYPE>U</CLASSIFICATION_TYPE><NORAD_CAT_ID>39166</NORAD_CAT_ID><ELEMENT_SET_NO>999</ELEMENT_SET_NO><REV_AT_EPOCH>8547</REV_AT_EPOCH><BSTAR>0</BSTAR><MEAN_MOTION_DOT>-.4E-6</MEAN_MOTION_DOT><MEAN_MOTION_DDOT>0</MEAN_MOTION_DDOT></tleParameters></data></segment></body></omm>

</ndm>