29601,NAVSTAR 59 (USA 192),2006,718.01,2060.0,+,55.06,Active,1,MEO,USA,USA,Commercial/Military,Navigation (Global or Regional Positioning),Delta,1 29601U 06052A   25013.89598494  .00000056  00000+0  00000+0 0  9997,2 29601  55.0619 234.6047 0087761  84.0011 277.0728  2.00553105132993,2.00553105,0.0087761,MEO
32260,NAVSTAR 60 (USA 196),2007,718.01,2217.0,+,53.73,Active,1,MEO,USA,USA,Commercial/Military,Navigation (Global or Regional Positioning),Delta,1 32260U 07047A   25014.20464043 -.00000036  00000+0  00000+0 0  9994,2 32260  53.7283 101.5090 0159072  79.4703 282.3398  2.00554537126402,2.00554537,0.0159072,MEO
32384,NAVSTAR 61 (USA 199),2007,718.0,2060.0,+,55.46,Active,1,MEO,USA,USA,Commercial/Military,Navigation (Global or Regional Positioning),Delta,1 32384U 07062A   25014.26757882 -.00000049  00000+0  00000+0 0  9994,2 32384  55.4598 294.9551 0028027 154.9829  18.6694  2.00558485125100,2.00558485,0.0028027,MEO
32711,NAVSTAR 62 (USA 201),2008,718.01,2217.0,+,54.46,Active,1,MEO,USA,USA,Commercial/Military,Navigation (Global or Regional Positioning),Delta,1 32711U 08012A   25014.11557055  .00000019  00000+0  00000+0 0  9994,2 32711  54.4574 170.6410 0191751 240.9507 117.0761  2.00553362123347,2.00553362,0.0191751,MEO
35752,NAVSTAR 64 (USA 206),2009,718.0,2059.0,+,55.85,Active,1,MEO,USA,USA,Commercial/Military,Navigation (Global or Regional Positioning),Delta,1 35752U 09043A   25014.15790750 -.00000059  00000+0  00000+0 0  9997,2 35752  55.8452  47.9116 0053504  75.3478 326.6125  2.00557029112955,2.00557029,0.0053504,MEO
36585,NAVSTAR 65 (USA 213),2010,717.98,1630.0,+,54.38,Active,1,MEO,USA,USA,Commercial/Military,Navigation (Global or Regional Positioning),Delta,1 36585U 10022A   25014.16094469  .00000054  00000+0  00000+0 0  9990,2 36585  54.3791 229.4839 0121198  63.1156  98.9011  2.00562189107187,2.00562189,0.0121198,MEO
38833,NAVSTAR 67 (USA 239),2012,717.99,1630.0,+,53.53,Active,1,MEO,USA,USA,Commercial/Military,Navigation (Global or Regional Positioning),Delta,1 38833U 12053A   25012.80442838  .00000016  00000+0  00000+0 0  9998,2 38833  53.5274 164.9012 0162597  59.4560 302.0936  2.00561149 89003,2.00561149,0.0162597,MEO
39166,NAVSTAR 68 (USA 242),2013,717.98,1630.0,+,54.93,Active,1,MEO,USA,USA,Commercial/Military,Navigation (Global or Regional Positioning),Atlas,1 39166U 13023A   25014.16247339 -.00000040  00000+0  00000+0 0  9994,2 39166  54.9296 290.0617 0130417  45.7378 315.3706  2.00562121 85475,2.00562121,0.0130417,MEO
